{"type":"FeatureCollection","features":[{"type":"Feature","properties":{"styleUrl":"#poly-A52714-1901-41-nodesc, #poly-A52714-1200-43-nodesc, #poly-A52714-1200-77, #poly-A52714-901-48-nodesc, #poly-A52714-1200-54-nodesc, #poly-A52714-1200-77, #poly-880E4F-1200-77-nodesc, #poly-C2185B-1200-77, #poly-A52714-1200-77-nodesc, #poly-880E4F-1200-77-nodesc, #poly-880E4F-1200-77-nodesc, #poly-880E4F-1200-77-nodesc, #poly-880E4F-1200-77-nodesc, #poly-880E4F-1200-77-nodesc, #poly-880E4F-1200-77-nodesc, #poly-880E4F-1200-77-nodesc","styleHash":null,"description":"Russia entered Dnipropetrovsk axis in 2025, Began March 2025, Russia entered Dnipropetrovsk in 2025","GEOlayersRenamed":"Feature merged","lat":48.0001757375,"lon":38.025805787500005},"geometry":{"type":"MultiPolygon","coordinates":[[[[31.502479,46.304412],[31.55741,46.256481],[31.614402,46.234163],[32.0482,46.164868],[32.679888,46.033708],[32.912514,46.008679],[33.024096,46.004513],[33.085803,46.007186],[33.187368,46.096353],[33.528878368178326,45.98146473660475],[33.528864,45.981445],[33.577932,45.918642],[33.4170283,45.8525622],[33.3582737,45.8020342],[33.2364884,45.7657947],[33.1961578,45.785208],[33.1982177,45.8239802],[33.1583916,45.8206308],[33.1363604,45.7411183],[33.0354824,45.7157338],[32.8553498,45.6233827],[32.5448666,45.4766554],[32.4587001,45.4138423],[32.4834193,45.332806],[32.6736202,45.3043195],[32.7192342,45.3352453],[32.7738268,45.3511954],[32.8531665,45.3550481],[32.911886,45.3439071],[33.000758,45.2977005],[33.1346665,45.2001758],[33.2469692,45.1355205],[33.2826587,45.1375184],[33.4028377,45.1795824],[33.4623315,45.1536549],[33.5366605,45.0883548],[33.5827393,45.0108987],[33.5831747,44.972648],[33.600191,44.9139286],[33.5842473,44.8590991],[33.5383955,44.8488726],[33.5181507,44.7905201],[33.5230013,44.6573847],[33.3746857,44.6031442],[33.3544291,44.5808957],[33.4479979,44.5191575],[33.4815725,44.4946172],[33.6061142,44.4735214],[33.6370578,44.4229798],[33.6665715,44.4053098],[33.7032882,44.4030956],[33.7368906,44.3761053],[33.8548209,44.3802975],[33.9617673,44.3834662],[34.1352568,44.4237275],[34.1809409,44.4819649],[34.2804116,44.4990564],[34.282881,44.5156267],[34.3142015,44.5405177],[34.3445776,44.5344876],[34.361395,44.5420019],[34.385346,44.58845],[34.4904841,44.7130389],[34.7489379,44.7986441],[35.0147382,44.8188293],[35.044449,44.7900835],[35.0868363,44.7798506],[35.431875,44.93755],[35.437368,45.036621],[35.4702974,45.0846456],[35.5595919,45.1112964],[35.6543722,45.0996913],[35.71752,45.061847],[35.82807,44.9861355],[35.9693554,44.9945089],[36.0489381,45.0272492],[36.1779617,44.9958169],[36.478323,45.067666],[36.500296,45.200874],[36.563296,45.224049],[36.602943,45.273773],[36.581998,45.288141],[36.56896,45.312046],[36.68494,45.380297],[36.667837,45.456243],[36.316275,45.508237],[36.03063,45.490911],[36.02239,45.446609],[35.981192,45.398415],[35.915274,45.431192],[35.91802,45.498612],[35.802664,45.498612],[35.676321,45.375268],[35.511526,45.338598],[35.03354457029555,45.764906328955426],[35.033846,45.764932],[34.885209,46.027387],[35.186253,46.112683],[35.443128,46.404702],[35.663721,46.510755],[35.742083,46.579661],[35.971948,46.646313],[36.113635,46.645079],[36.218504,46.644379],[36.218006,46.596104],[36.150273,46.556311],[36.072636,46.490858],[36.115994,46.478749],[36.184763,46.488347],[36.350458,46.681153],[36.425115,46.721642],[36.612175,46.764392],[36.64649,46.774303],[36.713842,46.77121],[36.765389,46.745285],[36.79086,46.717164],[36.731918,46.636644],[36.756767,46.625176],[36.788473,46.63067],[36.901446,46.798389],[36.96118,46.83512],[37.023731,46.860544],[37.06786,46.876617],[37.06785981102714,46.87661721850093],[37.1675105,46.914584],[37.2355098,46.944164],[37.3087801,46.9025343],[37.2824314,46.8765292],[37.2792136,46.863972],[37.3097547,46.8614312],[37.5293439,47.0705498],[37.5798282,47.0757313],[37.6079751,47.0832739],[37.6221741,47.0868977],[37.6306248,47.0927998],[37.665384,47.082717],[37.676344,47.077864],[37.685427,47.076722],[37.684819,47.080182],[37.712153,47.079926],[37.730284,47.081139],[37.750048,47.085096],[37.771193,47.088612],[37.793797,47.085053],[37.820122,47.091369],[37.849092,47.103523],[37.876485,47.107834],[37.9842805,47.0840604],[38.0392038,47.0891814],[38.091402,47.105497],[38.123389,47.080377],[38.0856575,47.0239356],[38.0965319,47.0211933],[38.168211,47.071319],[38.187184,47.096395],[38.230103,47.121385],[38.237154,47.136865],[38.2353435,47.2040366],[38.241089,47.216147],[38.231476,47.228738],[38.287094,47.237596],[38.28778,47.256241],[38.325546,47.254843],[38.325277,47.284232],[38.334001,47.306115],[38.219803,47.305152],[38.221863,47.328892],[38.245209,47.364251],[38.255508,47.374017],[38.28572,47.373087],[38.286407,47.392613],[38.3022,47.391219],[38.300826,47.474361],[38.288467,47.477145],[38.287093,47.490602],[38.285033,47.507766],[38.282973,47.543931],[38.306998,47.546016],[38.311121,47.552966],[38.311125,47.575671],[38.349916,47.576594],[38.350263,47.617576],[38.460126,47.619427],[38.455296,47.6449],[38.616336,47.644761],[38.626046,47.65342],[38.629619,47.6693],[38.665473,47.669444],[38.666713,47.70023],[38.766242,47.690352],[38.77054,47.721155],[38.784112,47.737146],[38.785648,47.8141],[38.824495,47.818473],[38.841895,47.865073],[39.071929,47.871123],[39.061338,47.899432],[39.06136423124359,47.89947543334181],[39.071852,47.871446],[39.082007,47.869581],[39.082547,47.852053],[39.108812,47.851938],[39.108983,47.842664],[39.149066,47.842607],[39.148637,47.851938],[39.174472,47.849606],[39.234425,47.86155],[39.241162,47.867521],[39.388104,47.872128],[39.415571,47.83158],[39.442434,47.857279],[39.475444,47.860442],[39.520105,47.827192],[39.569971,47.836484],[39.630837,47.84022],[39.652195,47.83304],[39.736824,47.827623],[39.7564776,47.8464127],[39.7633234,47.8463524],[39.76267,47.870983],[39.793352,47.870217],[39.793184,47.921284],[39.801614,47.936661],[39.80582,47.937063],[39.805648,47.950574],[39.820154,47.950804],[39.811053,48.001736],[39.787719,48.016008],[39.778118,48.040433],[39.879266,48.043691],[39.833042,48.066653],[39.865777,48.080438],[39.872231,48.117623],[39.895181,48.136927],[39.906676,48.180674],[39.937954,48.183415],[39.942912,48.229234],[40.006074,48.224893],[40.018442,48.252556],[39.990976,48.318808],[39.910982,48.271984],[39.9101366,48.291059],[39.887885,48.30767],[39.83854,48.311501],[39.844034,48.333417],[39.95115,48.353498],[39.934587,48.371779],[39.933343,48.382241],[39.918709,48.377309],[39.90831,48.392585],[39.913717,48.393098],[39.918008,48.397601],[39.911581,48.415995],[39.911066,48.421463],[39.902311,48.424596],[39.894672,48.429836],[39.897913,48.446476],[39.896797,48.448297],[39.884008,48.451543],[39.877571,48.455641],[39.847959,48.490921],[39.846562,48.501133],[39.863298,48.517566],[39.849701,48.567777],[39.844123,48.57215],[39.832449,48.574876],[39.816565,48.587496],[39.680609,48.592946],[39.657263,48.617464],[39.703954,48.666465],[39.699631,48.720856],[39.751675,48.777063],[39.800364,48.843186],[39.885003,48.821348],[39.925918,48.80498],[39.94156,48.79905],[39.958306,48.798346],[39.975049,48.79402],[40.081439,48.869195],[40.051794,48.912528],[40.007347,48.900767],[39.990623,48.869103],[39.971903,48.871351],[39.94906,48.876306],[39.937199,48.889385],[39.922585,48.896143],[39.835638,48.887943],[39.774977,48.92305],[39.767946,48.957229],[39.760736,48.966201],[39.753352,48.974836],[39.750154,48.976606],[39.748159,48.979053],[39.750294,48.981488],[39.75363,48.983246],[39.753705,48.985004],[39.751034,48.985862],[39.747321,48.986252],[39.744638,48.984615],[39.730005,48.976945],[39.730156,48.975057],[39.728047,48.974275],[39.725596,48.975296],[39.725499,48.977],[39.727516,48.977843],[39.7264,48.979078],[39.718502,48.980872],[39.717126,48.986263],[39.71587,48.988561],[39.71204,48.989507],[39.707951,48.991241],[39.707983,48.992862],[39.705696,48.994794],[39.704955,48.997513],[39.699523,48.999574],[39.696486,48.997788],[39.69362,48.997804],[39.692008,48.994909],[39.677457,48.988328],[39.664122,48.999653],[39.67123,49.001909],[39.679541,49.011821],[39.675707,49.012473],[39.672902,49.014025],[39.673444,49.016928],[39.675532,49.019381],[39.677048,49.021343],[39.676847,49.024995],[39.677591,49.026302],[39.679708,49.027045],[39.681582,49.027671],[39.682598,49.029084],[39.68224,49.030384],[39.680852,49.031797],[39.684085,49.032541],[39.685015,49.035108],[39.682512,49.037224],[39.680395,49.036574],[39.679079,49.036999],[39.678335,49.038073],[39.6741,49.038196],[39.682797,49.044408],[39.694072,49.049107],[39.742387,49.040601],[39.767177,49.038835],[39.77761,49.042331],[39.80274,49.057579],[39.80762,49.059213],[39.812142,49.059325],[39.817007,49.056961],[39.820557,49.056734],[39.880873,49.063017],[39.911313,49.05596],[39.938315,49.05497],[39.943434,49.069738],[39.938596,49.081582],[39.959171,49.10416],[39.972551,49.12314],[40.00308,49.150279],[40.01094,49.159413],[40.031624,49.178389],[40.078155,49.185627],[40.094573,49.201948],[40.109022,49.209742],[40.123682,49.2297],[40.137907,49.238446],[40.177482,49.236054],[40.20942,49.240936],[40.215043,49.243784],[40.22144,49.256942],[40.220285,49.261639],[40.216726,49.265216],[40.183938,49.28703],[40.179468,49.295606],[40.188582,49.307202],[40.190574,49.316951],[40.19497,49.328828],[40.19674,49.342819],[40.19439,49.346074],[40.177462,49.355128],[40.170831,49.355068],[40.160654,49.364563],[40.163129,49.366674],[40.156314,49.37151],[40.145678,49.376597],[40.1298,49.381196],[40.114012,49.384394],[40.077673,49.409221],[40.059375,49.435399],[40.047471,49.445137],[40.029382,49.453534],[40.042204,49.49995],[40.039242,49.520383],[40.169705,49.569254],[40.140673,49.595687],[40.136001,49.616778],[40.064369,49.59926],[40.057631,49.607204],[39.951684,49.597408],[39.935074,49.573452],[39.891366,49.558839],[39.868903,49.559869],[39.838882,49.564007],[39.809396,49.55869],[39.808104,49.556741],[39.778552,49.576315],[39.749937,49.59744],[39.714306,49.606225],[39.696806,49.604884],[39.687875,49.611245],[39.660226,49.615122],[39.638487,49.634628],[39.613182,49.69105],[39.591589,49.719697],[39.610506,49.733691],[39.564012,49.737075],[39.535951,49.740751],[39.480373,49.756781],[39.458427,49.75816],[39.448705,49.759473],[39.440012,49.760341],[39.412434,49.753221],[39.378736,49.739335],[39.362402,49.741037],[39.308291,49.753379],[39.28575,49.755607],[39.274462,49.768027],[39.264685,49.768921],[39.25155,49.776906],[39.248234,49.782341],[39.244084,49.78689],[39.237799,49.800082],[39.227783,49.808454],[39.230151,49.81076],[39.229619,49.813797],[39.227979,49.816534],[39.226642,49.840494],[39.205713,49.865203],[39.200049,49.871104],[39.195757,49.873021],[39.193568,49.875944],[39.193439,49.879087],[39.191315,49.880604],[39.189018,49.885218],[39.180132,49.888693],[39.131517,49.861857],[39.110347,49.838234],[39.071638,49.820213],[39.067753,49.815618],[39.050707,49.818415],[39.031883,49.823131],[39.021886,49.821708],[38.983331,49.807319],[38.93503,49.802283],[38.926553,49.809649],[38.914625,49.8384],[38.912433,49.854103],[38.918202,49.858413],[38.9101,49.859904],[38.899937,49.870026],[38.875587,49.870552],[38.842809,49.86926],[38.831909,49.876572],[38.795556,49.883987],[38.791118,49.878783],[38.768924,49.896275],[38.745109,49.897502],[38.732851,49.906294],[38.723283,49.927048],[38.694117,49.934994],[38.686914,49.962379],[38.716393,49.98308],[38.707205,49.993736],[38.696602,50.003257],[38.68838,50.008238],[38.67947,50.007149],[38.674851,49.991625],[38.678643,49.975327],[38.666748,49.972883],[38.646964,49.955421],[38.616579,49.974143],[38.611681,49.975773],[38.58275,49.977622],[38.52687,49.958446],[38.508376,49.963427],[38.488506,49.964429],[38.482719,49.977403],[38.479163,49.9777],[38.47698,49.983296],[38.465747,49.984331],[38.467999,49.994791],[38.436148,50.000641],[38.416298,49.982314],[38.357307,50.004144],[38.354197,50.034312],[38.329777,50.084541],[38.313878,50.089242],[38.29906,50.087402],[38.278263,50.075462],[38.178514,50.080896],[38.187267,50.021229],[38.215549,49.977441],[38.195778,49.969356],[38.198152,49.961932],[38.16274,49.951056],[38.171569,49.941895],[38.126773,49.922239],[38.129528,49.930217],[38.12473,49.942627],[38.057505,49.923446],[38.046036,49.91537],[38.036459,49.903645],[38.0338884,49.9001215],[38.0220399,49.9108714],[38.0240999,49.9148509],[38.0223832,49.9177248],[38.0258165,49.918388],[38.0210099,49.9259034],[38.0433259,49.9329756],[38.0240999,49.9519771],[38.0048738,49.9669962],[37.998694,49.9634627],[37.9801545,49.9769328],[37.9640184,49.9791406],[37.9262169,50.0339499],[37.8922644,50.0508454],[37.8629103,50.0550338],[37.8246298,50.0685883],[37.7980307,50.0843417],[37.7557661,50.0790822],[37.7354472,50.1020605],[37.7264186,50.1071436],[37.7070827,50.1280775],[37.7096087,50.1338423],[37.6648215,50.1606135],[37.6620050142107,50.160425462459145],[37.646723,50.174618],[37.6463472,50.1600802],[37.6411973,50.1518314],[37.6472055,50.1216838],[37.6640283,50.0983449],[37.6916658,50.0849089],[37.7205049,50.0607807],[37.7634202,50.0486569],[37.8247033,50.0445782],[37.846161,50.0380737],[37.8665887,50.033553],[37.8992044,50.0121569],[37.8798066,49.9868884],[37.8300248,49.9882128],[37.7507173,49.9466962],[37.7352678,49.9047016],[37.6971589,49.9064705],[37.6885759,49.8845754],[37.6932107,49.8730709],[37.6551019,49.8545917],[37.6484071,49.8254754],[37.631756,49.822596],[37.631241,49.7783872],[37.6410257,49.7592064],[37.66214,49.7603153],[37.7029954,49.7359132],[37.7124153,49.7185874],[37.7436792,49.7130528],[37.7494256,49.7239346],[37.8120004,49.7154947],[37.8162061,49.7184914],[37.8343164,49.717881],[37.840067,49.7171041],[37.8542291,49.7156057],[37.8503667,49.7028398],[37.8433286,49.6891821],[37.8408395,49.6765204],[37.8415262,49.6608552],[37.8563749,49.6600218],[37.8642713,49.6480749],[37.8552367,49.6074513],[37.8209268,49.6070999],[37.7853929,49.6042632],[37.7842011,49.5851249],[37.7840196,49.5772782],[37.7621327,49.572269],[37.7632914,49.559882],[37.770834,49.560084],[37.7710805,49.5537717],[37.7617036,49.5519488],[37.7422201,49.5481065],[37.7205049,49.5526727],[37.6943265,49.5538977],[37.6962148,49.5413122],[37.6893873,49.519818],[37.69664,49.5166698],[37.7264232,49.5147751],[37.7501983,49.504632],[37.787878,49.4954902],[37.7792949,49.4809937],[37.7768917,49.4813283],[37.7674503,49.4676084],[37.7593822,49.4579018],[37.7380962,49.4486397],[37.7502842,49.4270958],[37.767107,49.4316733],[37.7708835,49.4133608],[37.7885647,49.402303],[37.8033275,49.4008508],[37.8089924,49.3977228],[37.8484745,49.3945946],[37.8499336,49.3794814],[37.8650827,49.3794814],[37.8804473,49.3861336],[37.8937033,49.3884289],[37.8937882617412,49.38845299093656],[37.8944193,49.3885627],[37.900439836297494,49.39033904762936],[37.9175428,49.3951886],[37.9213837,49.3823666],[37.9399446,49.3820174],[37.9438385,49.3768236],[37.953699,49.3652655],[37.9533429,49.3628023],[37.9508659,49.3598694],[37.9408794,49.3520442],[37.9447417,49.3470929],[37.9409075,49.3447298],[37.948765,49.342276],[37.9509202,49.3387147],[37.9587201,49.3315906],[37.9604152,49.3252697],[37.9573897,49.3222488],[37.967828,49.312256],[37.9691259,49.3024145],[37.9702846,49.2997839],[37.9665081,49.2935429],[37.9685577,49.287507],[37.9781706,49.286141],[37.9780238,49.2822679],[37.9837421,49.2803588],[37.9839102,49.2794485],[37.9935233,49.2789446],[37.9973857,49.2772088],[37.9970423,49.2665124],[37.9985015,49.2633898],[37.9874293,49.2581244],[37.979726,49.2556456],[37.9725162,49.2542871],[37.9692761,49.2524944],[37.9738895,49.2467516],[37.9694692,49.2413864],[37.9710786,49.2334005],[37.9520671,49.2274593],[37.922198,49.2268147],[37.8975646,49.2238718],[37.8997962,49.2130342],[37.9000144,49.2130499],[37.8997139,49.2128937],[37.8966133,49.2119965],[37.8898326,49.2110153],[37.8913776,49.2070902],[37.8904335,49.2034451],[37.8961841,49.2014823],[37.8999607,49.1925084],[37.8880302,49.1929571],[37.8805629,49.1915548],[37.8711216,49.1913305],[37.856938,49.190447],[37.842094,49.1903978],[37.8329959,49.1822635],[37.8208938,49.1843393],[37.7871827,49.1913519],[37.774878,49.1790932],[37.7969041,49.1751378],[37.7862611,49.1604343],[37.7704683,49.157684],[37.7654901,49.1543721],[37.7550187,49.158133],[37.7412858,49.149039],[37.7340761,49.1506109],[37.7224031,49.129161],[37.6960507,49.1212977],[37.6937356,49.1129832],[37.6985422,49.1124213],[37.7048936,49.1012959],[37.6928773,49.0806117],[37.7169099,49.0680171],[37.7807679,49.0684669],[37.8096071,49.0812863],[37.8216234,49.0675672],[37.844626,49.0657677],[37.8501191,49.0099506],[37.8545012,49.0079796],[37.8651235,49.007938],[37.8657895,48.9917901],[37.8700573,48.9918048],[37.8722634,48.9722163],[37.87501,48.9695117],[37.841547,48.9162263],[37.9059091,48.8988057],[37.9151788,48.8903413],[37.9395547,48.8801258],[37.9505382,48.8803255],[37.9649606,48.8765696],[37.9920831,48.8765131],[38.0143132,48.8634716],[38.0166217,48.863837],[38.0182434,48.8572006],[38.0185678,48.8512672],[38.0288764,48.8442163],[38.0256201,48.8402161],[38.0014949,48.8423387],[37.996988,48.8330043],[38.0175416,48.8299969],[38.0213075,48.8264442],[38.0028978,48.8018878],[38.007624,48.784831],[37.9980585,48.782765],[37.9979275,48.7811836],[37.972456,48.777565],[37.9663823,48.7646693],[37.9073683,48.7604598],[37.922727,48.7400526],[37.9685127,48.7327902],[37.9878595,48.7271143],[37.997221,48.712828],[38.002376,48.710548],[37.9875786,48.6991959],[37.9585648,48.7014862],[37.9406643,48.7011145],[37.9321077,48.699806],[37.9230065,48.6967046],[37.890592,48.7075684],[37.8838799,48.692485],[37.8591372,48.6851328],[37.843514,48.675102],[37.8210285,48.6753854],[37.8163936,48.66711],[37.8196552,48.6506685],[37.8138187,48.647493],[37.7894428,48.6449978],[37.7910776,48.6428414],[37.8155837,48.6337661],[37.8167369,48.6153864],[37.7939918,48.6118682],[37.7791431,48.6105062],[37.7825763,48.5983037],[37.8084114,48.5878015],[37.8139045,48.5867228],[37.8179185,48.5905129],[37.8348058,48.5804488],[37.8363063,48.5733787],[37.8307273,48.5720157],[37.830899,48.5699143],[37.8417137,48.5558273],[37.8278091,48.5428729],[37.806711,48.536222],[37.808715,48.520878],[37.7890995,48.5080271],[37.7629211,48.5006911],[37.7545956,48.4939229],[37.7606037,48.4843661],[37.7969959,48.4609218],[37.783849,48.451759],[37.7831771,48.4433314],[37.786267,48.4399151],[37.7865245,48.4380929],[37.7677276,48.4374096],[37.7574279,48.4398012],[37.7244689,48.4403706],[37.7134638,48.4496563],[37.6937155,48.4424575],[37.67085,48.4413512],[37.6664913,48.4281823],[37.6205962,48.4244944],[37.6108544,48.4436286],[37.5889675,48.4373083],[37.5860922,48.4497204],[37.5590555,48.4475855],[37.5584547,48.4488949],[37.5454943,48.4478702],[37.4938671,48.4580315],[37.4679463,48.4526522],[37.460479,48.4631256],[37.4210827,48.466768],[37.4176066,48.4560392],[37.3777811,48.4649183],[37.377591,48.4807662],[37.3506159,48.4865985],[37.345423,48.4661704],[37.2248312,48.4552486],[37.2552153,48.4135067],[37.2654291,48.3902006],[37.249958,48.388008],[37.2598402,48.3792135],[37.2597643,48.3695067],[37.2103258,48.3633483],[37.2173639,48.3385358],[37.2170206,48.3243273],[37.2183316,48.3155365],[37.2044768,48.3145979],[37.1747907,48.3147667],[37.1324808,48.3111026],[37.118186,48.2957504],[37.117972,48.2861047],[37.0974155,48.2762804],[37.0771166,48.2668827],[37.0645853,48.2625974],[37.0345446,48.2534544],[36.9345518,48.2451671],[36.9367834,48.2364782],[36.9475122,48.2352205],[36.9528338,48.2073713],[36.9332751,48.2055623],[36.9345304,48.1999276],[36.9345518,48.1987905],[36.9355818,48.1955294],[36.9364401,48.1943994],[36.9405814,48.1865174],[36.9381782,48.1766167],[36.9234153,48.1753575],[36.905305,48.1722094],[36.894662,48.1714653],[36.8998977,48.1445551],[36.9008418,48.1407751],[36.9056483,48.134589],[36.8842765,48.1328132],[36.8852206,48.127371],[36.8854788,48.1264101],[36.8853872,48.1246948],[36.8928269,48.0792462],[36.8823694,48.0651014],[36.8436508,48.0608959],[36.8271342,48.0626021],[36.793083,48.058873],[36.7816454,48.0493099],[36.7513815,48.06154],[36.7487164,48.0661836],[36.7405259,48.0683149],[36.7335472,48.0684518],[36.7273965,48.0705273],[36.725093,48.0732855],[36.7241663,48.0784144],[36.7221512,48.0808156],[36.7201892,48.0840419],[36.7157498,48.0849897],[36.7139692,48.0799877],[36.7079414,48.0804634],[36.6909009,48.0847468],[36.6520117,48.0873177],[36.6237584,48.0809349],[36.6022821,48.0844576],[36.5968407,48.0620587],[36.5759679,48.0404592],[36.5949029,48.0221674],[36.6426518,47.9871617],[36.6297504,47.9614891],[36.6293204,47.9615786],[36.6288892,47.9615036],[36.6368285,47.9307598],[36.6109721,47.9277405],[36.5865532,47.9230098],[36.5885488,47.9126413],[36.5406981,47.9086717],[36.5368044,47.9168751],[36.5283601,47.9162511],[36.5338706,47.9083451],[36.5449253,47.8654027],[36.5125959,47.862521],[36.4758291,47.8742038],[36.4730422,47.8863439],[36.4374224,47.8933511],[36.3811175,47.8879698],[36.3784567,47.8949912],[36.3387601,47.8932072],[36.3273875,47.877551],[36.3200918,47.8712182],[36.3133113,47.8709303],[36.3090197,47.8419617],[36.2753521,47.8229964],[36.2678019,47.8323654],[36.2666353,47.8322716],[36.2669786,47.8311769],[36.2742543,47.8171128],[36.2820435,47.7819434],[36.2834582,47.7670065],[36.2526031,47.7638017],[36.2546416,47.7510066],[36.2190988,47.7502644],[36.22166,47.739019],[36.2280115,47.7131532],[36.23756,47.6937217],[36.213024,47.679637],[36.2278397,47.6729432],[36.2417444,47.6505717],[36.2151369,47.642592],[36.2196451,47.6363183],[36.2170154,47.6353006],[36.232352,47.6184793],[36.2439657,47.6210607],[36.2425321,47.6083676],[36.2441266,47.6081879],[36.2435361,47.5953319],[36.252205,47.5946373],[36.2534495,47.589225],[36.2447806,47.5886027],[36.2467333,47.5784568],[36.2256189,47.5766908],[36.2270137,47.5685116],[36.221027,47.56828],[36.2076803,47.5703502],[36.2005135,47.569858],[36.1912437,47.5716821],[36.1881967,47.573622],[36.180987,47.5742589],[36.1738201,47.5734482],[36.1551948,47.5752433],[36.1497234,47.5758806],[36.1260861,47.5790936],[36.1042115,47.5764304],[36.102881,47.5671362],[36.1032775,47.5643701],[36.0935787,47.563791],[36.082249,47.5628933],[36.0831503,47.5513376],[36.092892,47.5470217],[36.0829357,47.5215533],[36.0653833,47.5237559],[36.0513715,47.5175175],[36.0177258,47.5191985],[36.0133691,47.5187443],[35.9802053,47.5153042],[35.9760204,47.5111619],[35.9672334,47.508105],[35.9683376,47.4839709],[35.9608032,47.4821424],[35.951381,47.4810673],[35.9516812,47.4650632],[35.9337877,47.4664065],[35.9207876,47.463978],[35.9119034,47.4423004],[35.8988973,47.4433786],[35.885451,47.4448515],[35.8765583,47.4446425],[35.8579727,47.442196],[35.8553512,47.4463661],[35.8441705,47.450221],[35.8337169,47.4578476],[35.8265927,47.4577324],[35.8211348,47.4531725],[35.8171833,47.4508342],[35.8045647,47.4528281],[35.8030446,47.4520005],[35.7951176,47.4531538],[35.7942439,47.4568352],[35.78835,47.465683],[35.7825609,47.4814762],[35.7458215,47.4844765],[35.7466764,47.4906152],[35.7205404,47.490289],[35.6824938,47.5063597],[35.670295,47.50005],[35.6503737,47.4984928],[35.6391444,47.4956779],[35.6137032,47.4976327],[35.6043248,47.5014338],[35.5936269,47.5173061],[35.5727648,47.5120973],[35.5688637,47.5227539],[35.565772,47.5345472],[35.5225504,47.5302012],[35.481918,47.5276121],[35.4806363,47.5352246],[35.4277424,47.5315327],[35.4066102,47.5358369],[35.395928,47.537107],[35.3843292,47.536803],[35.3792654,47.548638],[35.3914923,47.5761922],[35.3911704,47.5824984],[35.3856981,47.5860256],[35.3320833,47.5799862],[35.314977,47.576342],[35.3249718,47.5597315],[35.331739,47.5366544],[35.331911,47.522282],[35.318178,47.514398],[35.299131,47.511669],[35.29103,47.509376],[35.279122,47.503746],[35.273929,47.497529],[35.272643,47.493618],[35.277623,47.480112],[35.269903,47.474502],[35.266652,47.47442],[35.202224,47.445246],[35.177018,47.445793],[35.088237,47.452014],[35.062488,47.450389],[35.048326,47.440173],[35.024294,47.416308],[34.978791,47.392914],[34.944728,47.390572],[34.885162,47.405794],[34.865593,47.420663],[34.874726,47.437336],[34.875549,47.448067],[34.869504,47.450376],[34.863678,47.449514],[34.825253,47.463738],[34.804653,47.46687],[34.767344,47.478831],[34.761284,47.484857],[34.750525,47.492496],[34.692787,47.496948],[34.681726,47.515306],[34.654093,47.529283],[34.650158,47.539464],[34.639515,47.545606],[34.616855,47.545374],[34.581573,47.525826],[34.550417,47.53501],[34.531368,47.532511],[34.50064,47.500628],[34.425223,47.498252],[34.388932,47.514159],[34.366745,47.506311],[34.366172,47.492517],[34.348232,47.482239],[34.337082,47.46818],[34.339508,47.451668],[34.293975,47.42897],[34.285617,47.435463],[34.270958,47.441334],[34.249672,47.43576],[34.203666,47.413462],[34.152797,47.424715],[34.140041,47.424991],[34.097971,47.421451],[34.061531,47.424612],[34.04448,47.417727],[34.012092,47.343485],[33.98147,47.228038],[33.852724,47.14007],[33.794161,47.056573],[33.700527,47.006905],[33.680135,46.904049],[33.658407,46.911379],[33.630091,46.897428],[33.63346,46.841469],[33.577879,46.822501],[33.465327,46.822515],[33.370207,46.777355],[33.334111,46.755152],[33.281666,46.749724],[33.241807,46.762285],[33.222582,46.765742],[33.195029,46.769408],[33.170733,46.776125],[33.158697,46.778898],[33.1474792,46.7588468],[33.1158935,46.7489087],[33.0976116,46.7417921],[33.0244253,46.7185319],[33.0122675,46.717376],[32.9973983,46.7155298],[32.9889041,46.7139997],[32.9809262,46.7108252],[32.9632582,46.7110664],[32.9488681,46.7124883],[32.9417183,46.7143886],[32.925531,46.713124],[32.913141,46.7106651],[32.9059054,46.708795],[32.8712901,46.6859886],[32.8631569,46.6794436],[32.8575358,46.6717696],[32.8466381,46.663841],[32.8399521,46.6561104],[32.8318016,46.6516852],[32.8130071,46.6449661],[32.80962,46.643009],[32.8045207,46.6397424],[32.8006127,46.6383735],[32.7739341,46.6365109],[32.766492,46.635714],[32.76088,46.634356],[32.7562507,46.6322197],[32.7504199,46.6317335],[32.7456248,46.6335897],[32.7431585,46.6338247],[32.7392431,46.6332641],[32.734684,46.6332044],[32.7306614,46.633395],[32.726982,46.6341749],[32.7254023,46.6432063],[32.7197022,46.6429268],[32.718087,46.6374174],[32.7131401,46.6370056],[32.706567,46.633341],[32.70026,46.627678],[32.69046,46.624148],[32.66797,46.618845],[32.662993,46.614189],[32.645619,46.608162],[32.6424779,46.6107884],[32.6403667,46.6100534],[32.639234,46.6102343],[32.6352698,46.6118502],[32.6323873,46.6124715],[32.6287679,46.6120041],[32.6277949,46.6111282],[32.6273086,46.6078431],[32.6187957,46.5893414],[32.612346,46.5833433],[32.6000265,46.5772475],[32.5944519,46.5793294],[32.5830129,46.5836432],[32.5684473,46.5691563],[32.566651,46.5700049],[32.5651399,46.5708804],[32.5638344,46.571156],[32.563026,46.5708812],[32.5619244,46.5712164],[32.5610087,46.5710608],[32.55995,46.5701004],[32.558591,46.5696828],[32.555661,46.5706548],[32.5525473,46.5710057],[32.5512121,46.5705862],[32.5500867,46.5706914],[32.548061,46.5720917],[32.5412977,46.5715641],[32.5323027,46.5707707],[32.5255932,46.5686355],[32.5253213,46.5674443],[32.5246917,46.5645898],[32.5209439,46.5623623],[32.5175687,46.5615659],[32.5037865,46.5593744],[32.4968114,46.5652516],[32.4915527,46.5631618],[32.4962275,46.5564442],[32.4965679,46.5546481],[32.4959643,46.5481596],[32.493211,46.5371568],[32.4972098,46.5325572],[32.486454,46.526141],[32.473304,46.513345],[32.456658,46.505042],[32.439125,46.503071],[32.427662,46.489501],[32.420584,46.487562],[32.402494,46.477168],[32.383138,46.471501],[32.362098,46.466873],[32.3341172,46.4679375],[32.311715,46.47201],[32.296964,46.473274],[32.1633,46.495181],[32.080697,46.502858],[32.015928,46.492629],[31.756538,46.548159],[31.569083,46.543908],[31.534751,46.558547],[31.513962,46.5784698],[31.5104522,46.5777132],[31.5179282,46.5623242],[31.5301724,46.5500476],[31.650794,46.470184],[31.763404,46.357988],[31.783317,46.360831],[31.78675,46.375992],[31.742118,46.428551],[31.707786,46.456941],[31.745551,46.482951],[31.965278,46.430444],[32.012656,46.44464],[32.035316,46.402041],[32.000584,46.359552],[31.902783,46.342775],[31.83459,46.340182],[31.77233,46.331443],[31.711219,46.285909],[31.6659,46.256956],[31.611656,46.255057],[31.55741,46.281164],[31.543678,46.314847],[31.541618,46.374571],[31.510032,46.372676],[31.502479,46.304412]],[[36.8854788,48.1264101],[36.8950205,48.0771734],[36.881602,48.0626252],[36.8948466,48.0775425],[36.8914134,48.0954312],[36.8854788,48.1264101]],[[33.65169952323161,46.22606971181522],[33.651967,46.226064],[33.688341,46.20451],[33.65169952323161,46.22606971181522]],[[33.688341,46.20451],[33.734718519272285,46.18533529906164],[33.734617,46.185314],[33.688341,46.20451]],[[33.824815505585434,46.203980722577384],[33.824936,46.204006],[34.03192095643878,46.111099891099094],[34.031785,46.111083],[33.824815505585434,46.203980722577384]],[[34.10849433105057,46.11000928513919],[34.108849,46.109932],[34.132352,46.098706],[34.155155,46.079381],[34.245811687038845,46.05216838074252],[34.245808,46.052168],[34.154647,46.079532],[34.131843,46.098857],[34.10849433105057,46.11000928513919]],[[34.32415269694503,46.06005381746121],[34.324261,46.060065],[34.380663,46.037038],[34.440108,45.964237],[34.48534295730262,45.94231992015941],[34.485231,45.942282],[34.439601,45.964389],[34.380155,46.03719],[34.32415269694503,46.06005381746121]],[[34.60936335121099,45.99397221442117],[34.609498,45.993973],[34.664338,45.971322],[34.753162365456745,45.91029450175118],[34.752791,45.910356],[34.663832,45.971476],[34.60936335121099,45.99397221442117]],[[34.799614,45.804458],[34.801086943130386,45.90228780492883],[34.801593,45.902204],[34.800118841301405,45.80435983959857],[34.799614,45.804458]],[[34.87917059210343,45.78893316137591],[34.879372,45.788894],[34.95882540409349,45.75873976354778],[34.958746,45.758733],[34.87917059210343,45.78893316137591]],[[35.4818322,47.5273803],[35.5222425,47.5299315],[35.5656862,47.5341705],[35.5226791,47.5299404],[35.4818322,47.5273803]],[[35.7431692,47.4839189],[35.781749,47.480678],[35.762667,47.48222],[35.7431692,47.4839189]],[[36.051688,47.516872],[36.065866,47.523534],[36.07119427801506,47.52268396827924],[36.0658658,47.5235339],[36.051688,47.516872]],[[36.082744,47.562554],[36.094018,47.563568],[36.082744037309745,47.56255351235582],[36.082744,47.562554]],[[36.08358498679408,47.55156217260341],[36.09327,47.54726],[36.083585,47.551562],[36.08358498679408,47.55156217260341]],[[36.200383,47.569544],[36.207506,47.570037],[36.221025,47.568097],[36.227161843455534,47.56835699336784],[36.2271619,47.5683566],[36.2210248,47.5680968],[36.2075058,47.5700366],[36.200383,47.569544]],[[36.5210258,47.836388],[36.5851594,47.8473856],[36.6044194,47.8505872],[36.5210258,47.836388]],[[36.7138939462444,47.678098211974884],[36.7901114,47.6843391],[36.7791251,47.6665391],[36.779125057556094,47.66653909325491],[36.790111,47.684339],[36.713894,47.678098],[36.7138939462444,47.678098211974884]],[[36.744879,47.621492],[36.75199426665985,47.62215181084199],[36.74487900995517,47.62149173803099],[36.744879,47.621492]],[[36.74685294265368,47.60639021363349],[36.7633322,47.6073161],[36.76372617926983,47.603863058448546],[36.763332,47.607316],[36.746853,47.60639],[36.74685294265368,47.60639021363349]],[[36.767855097117085,48.05234121002858],[36.7732634,48.0489131],[36.7683148,48.0519452],[36.767855097117085,48.05234121002858]],[[36.80684990439232,47.6157345181454],[36.8313101,47.6239793],[36.87757985169086,47.5646820414518],[36.83131,47.623979],[36.80684990439232,47.6157345181454]],[[36.857059,47.190641],[36.857059,47.199973],[36.96142935404487,47.202305985561],[36.9614295,47.2023055],[36.8570594,47.1999729],[36.8570594,47.1906413],[37.0012549,47.1290121],[37.00125490927326,47.12901203877638],[36.857059,47.190641]],[[36.92641,47.318806],[36.92641051832752,47.31880603902833],[36.942136351595,47.26648961048491],[36.92641,47.318806]],[[36.94397917163982,47.57639942993132],[36.9452933,47.5772162],[36.961237253625555,47.559734137789704],[36.945293,47.577216],[36.94397917163982,47.57639942993132]],[[36.94501759733477,47.31937754866373],[36.94563697488611,47.31182330630164],[36.9456366,47.3118233],[36.94501759733477,47.31937754866373]],[[36.988209,47.079002],[36.9882096459199,47.07900215168348],[37.0809058,47.0481321],[37.0987586,47.058892],[37.098758780198004,47.058891867525375],[37.080906,47.048132],[36.988209,47.079002]],[[37.00235364512501,47.12175799794679],[37.0081214,47.0836783],[37.00812096986111,47.08367819899746],[37.00235364512501,47.12175799794679]],[[37.009079987574154,47.312889749959574],[37.028721,47.31322],[37.038334,47.299252],[37.04119892727073,47.30020878171041],[37.0383338,47.2992519],[37.0287207,47.3132199],[37.009079987574154,47.312889749959574]],[[37.016850400326675,47.54795329144935],[37.0235709,47.552197],[37.02357093564329,47.55219695936209],[37.016850400326675,47.54795329144935]],[[37.06173269767868,47.50868766996201],[37.0764426,47.4919165],[37.08245333410457,47.4953008707665],[37.076443,47.491916],[37.06173269767868,47.50868766996201]],[[37.08400860909134,47.31646431214086],[37.084339,47.3146165],[37.084338915658705,47.31461647183209],[37.08400860909134,47.31646431214086]],[[37.0846822299252,47.49655586054407],[37.0846823,47.4965559],[37.1382407,47.4640714],[37.2446707,47.4663923],[37.24467053893651,47.46639198994524],[37.138241,47.464071],[37.0846822299252,47.49655586054407]],[[37.090872326102044,47.32390497850455],[37.096698510996006,47.32508990054699],[37.0966986,47.3250898],[37.090872326102044,47.32390497850455]],[[37.092579,47.329744],[37.121074,47.339982],[37.11534657075447,47.35453247310367],[37.1210745,47.3399816],[37.09257901890386,47.32974397864597],[37.092579,47.329744]],[[37.095722599999995,46.96498377832103],[37.102192,46.960569],[37.13122757271311,46.97749981813095],[37.1021918,46.9605688],[37.095722599999995,46.96498377832103]],[[37.09818092046271,47.00426170009842],[37.1399573,46.9825902],[37.13995697725015,46.98259001180168],[37.09818092046271,47.00426170009842]],[[37.107342,47.374868],[37.117039373309204,47.37638324004179],[37.10734205098469,47.374867870473935],[37.107342,47.374868]],[[37.11460736030487,47.030018959682096],[37.124850924766434,47.039709928824955],[37.1248511,47.0397098],[37.11460736030487,47.030018959682096]],[[37.156322333335794,47.35471099999523],[37.16296,47.341843],[37.20347188053273,47.35626495747046],[37.203472,47.3562647],[37.1629599,47.3418428],[37.156322333335794,47.35471099999523]],[[37.195919,47.372543],[37.196331889828556,47.37333782477683],[37.19591900183699,47.37254299604098],[37.195919,47.372543]],[[37.691043,48.4249128],[37.7200938,48.4269731],[37.7062352,48.4256531],[37.691043,48.4249128]],[[37.8418695,49.6764093],[37.8444656,49.6890851],[37.8418829863437,49.67604005399286],[37.8418695,49.6764093]],[[37.900303,49.5728639],[37.9221846,49.5677412],[37.9067812,49.570971],[37.900303,49.5728639]],[[37.9493873,49.3425136],[37.9512509,49.3389132],[37.9590989,49.3316698],[37.951074,49.338793],[37.9493873,49.3425136]],[[37.9986384,49.269616],[38.0008034,49.2718066],[38.000136,49.270861],[37.9986384,49.269616]],[[38.0530792,48.9693192],[38.0534316,48.9706099],[38.0532988,48.96892],[38.0543501,48.9650319],[38.0530792,48.9693192]],[[38.067128,49.0958008],[38.0842699,49.1353082],[38.0761247,49.1141503],[38.067128,49.0958008]],[[38.2258904,48.857827],[38.2272219,48.8588887],[38.229065,48.8590316],[38.226733,48.856039],[38.2258904,48.857827]],[[38.2268185,48.9222671],[38.2279215,48.8853849],[38.2274623,48.8844119],[38.2268185,48.9222671]],[[38.229065,48.8590316],[38.229348518402745,48.865945302175966],[38.229664,48.865415],[38.229065,48.8590316]],[[38.23253124988072,48.63973036993912],[38.261868,48.642894],[38.261918998360265,48.64256844103269],[38.232585,48.639405],[38.23253124988072,48.63973036993912]],[[38.277956303978385,48.540411458812315],[38.281462,48.538763],[38.281462,48.538480509881424],[38.278004,48.540107],[38.277956303978385,48.540411458812315]],[[38.281546,48.534576],[38.281546,48.53494356962025],[38.284227,48.536398],[38.321014,48.508633],[38.320744302757916,48.508577960363354],[38.284312,48.536076],[38.281546,48.534576]],[[38.282005,48.737791],[38.307285,48.737307],[38.318145,48.735503],[38.3072851,48.7373066],[38.282005,48.737791]],[[38.287823,48.476286],[38.288063620490476,48.476481535284705],[38.29966974147327,48.472009584939514],[38.287823,48.476286]],[[38.29544,48.480725],[38.295529843935604,48.48070813029943],[38.29646,48.478895],[38.296427973745466,48.47879916711934],[38.29544,48.480725]],[[38.297760222733146,48.490086185605875],[38.300557,48.489111],[38.307129,48.484405],[38.30673105128548,48.48442810813306],[38.300641,48.488789],[38.297796,48.489781],[38.297760222733146,48.490086185605875]],[[38.300323,48.477458],[38.30060561433787,48.47775945529373],[38.300872,48.477632],[38.300521280078165,48.47725789875005],[38.300323,48.477458]],[[38.301411,48.484907],[38.301432367473986,48.484901071007215],[38.30408,48.476661],[38.307344,48.474882],[38.307154078933294,48.47470929705198],[38.304164,48.476339],[38.301411,48.484907]],[[38.31010306238751,48.46824338384622],[38.320127,48.464917],[38.31992651198504,48.46469733298493],[38.31010306238751,48.46824338384622]],[[38.311393,48.500749],[38.31143651119281,48.501068434473005],[38.314142,48.501014],[38.314503,48.49965],[38.31450187287438,48.4996496437655],[38.314226,48.500692],[38.311393,48.500749]],[[38.31189,48.455478],[38.31203250386586,48.45563415477705],[38.316847,48.452109],[38.316837654544685,48.45185462838801],[38.31189,48.455478]],[[38.316898,48.450916],[38.31690997327701,48.45124189763374],[38.320202,48.451377],[38.344996,48.437608],[38.350237,48.441509],[38.356335,48.441182],[38.359984,48.443238],[38.369234,48.443413],[38.376852,48.441309],[38.378777,48.434979],[38.381295,48.429686],[38.4037314976588,48.43469296987988],[38.403846,48.434378],[38.381378,48.429364],[38.37886,48.434658],[38.376935,48.440987],[38.369317,48.443091],[38.360068,48.442917],[38.356418,48.44086],[38.350321,48.441187],[38.345079,48.437287],[38.320286,48.451055],[38.316898,48.450916]],[[38.40182,48.440042],[38.421728,48.443726],[38.433398,48.447066],[38.43342611354895,48.44672829128136],[38.421811,48.443404],[38.401935029684616,48.43972574236993],[38.40182,48.440042]],[[38.428339,48.277782],[38.428375368917074,48.27809978127816],[38.56128,48.273363],[38.592085,48.256824],[38.592047499391796,48.25656022652129],[38.559779,48.272688],[38.428339,48.277782]],[[38.432689,48.435109],[38.43270776107768,48.43514414468457],[38.436232,48.425175],[38.43623233596918,48.42508681199672],[38.432689,48.435109]],[[38.43835810630552,48.39217704003414],[38.448499,48.376861],[38.454609,48.380818],[38.469677,48.37983],[38.46970054710157,48.37951189829199],[38.454692,48.380496],[38.448581,48.376538],[38.438412,48.391899],[38.43835810630552,48.39217704003414]],[[38.588326,48.229485],[38.588353008195675,48.22967501390997],[38.610356,48.203034],[38.606365,48.169852],[38.821274,48.11538],[38.809431,48.090153],[38.830812,48.068211],[38.813056,48.04921],[38.840328,48.010304],[39.043902,48.00468],[39.042982,47.957294],[39.085979,47.93841],[39.06616545599867,47.90742523698712],[39.084469,47.937732],[39.041472,47.956617],[39.042393,48.004004],[38.838821,48.009628],[38.81155,48.048534],[38.829306,48.067535],[38.807926,48.089477],[38.819769,48.114704],[38.604863,48.169176],[38.608855,48.202358],[38.588326,48.229485]]],[[[34.7584495,51.1771872],[34.7606811,51.1726671],[34.7808601,51.1572509],[34.8011932,51.1459677],[34.8013648,51.1435985],[34.806066,51.14018],[34.8039398,51.1319659],[34.828503,51.122423],[34.8353538,51.1271182],[34.8482284,51.1275491],[34.8714027,51.1217312],[34.9234161,51.1611495],[34.924539,51.152756],[34.9503669,51.1440293],[34.9474487,51.1343358],[34.9795494,51.1274414],[34.9860725,51.1274414],[35.0209197,51.1127874],[35.0427207,51.106752],[35.050703,51.1098776],[35.0686488,51.1222596],[35.1152864,51.1446525],[35.1282081,51.1500598],[35.1364229,51.1444295],[35.1353747,51.148914],[35.1342318,51.1709313],[35.1304991,51.174049],[35.1296621,51.1939003],[35.1429771,51.202965],[35.1370672,51.2085877],[35.1393074,51.2171962],[35.1489091,51.2208587],[35.1509768,51.2232309],[35.1249391,51.2300871],[35.1194524,51.2313479],[35.117399,51.2295987],[35.1047084,51.2327641],[35.0851643,51.2300631],[35.0747298,51.2321166],[35.0689664,51.2302029],[35.0612185,51.2222878],[35.0632347,51.217207],[35.0566261,51.2124196],[35.0551241,51.2107797],[35.041992,51.2186562],[35.0235297,51.2212319],[35.0079827,51.2321907],[34.9957717,51.2289511],[34.9847373,51.2312841],[34.9794883,51.2350891],[34.9497823,51.2268612],[34.9521615,51.2195687],[34.9397545,51.2179318],[34.9400515,51.2115634],[34.9344671,51.2072136],[34.9246733,51.2053959],[34.9126401,51.2067059],[34.9040262,51.2035169],[34.9053399,51.1986455],[34.8976005,51.193581],[34.885492,51.1959968],[34.8764738,51.1910963],[34.8615297,51.1987215],[34.8459892,51.1911296],[34.8468039,51.1889469],[34.8332001,51.1831057],[34.8340637,51.1691799],[34.8160476,51.1693516],[34.8084422,51.1763097],[34.7987928,51.1757516],[34.7836095,51.1845323],[34.7786538,51.1766966],[34.7584495,51.1771872]]],[[[36.6954106,50.2668591],[36.7359227,50.2598359],[36.7565221,50.2495188],[36.78094,50.24887],[36.790511,50.2457866],[36.8097371,50.2457866],[36.8230409,50.2471587],[36.8324823,50.2502323],[36.8634671,50.2689439],[36.9026059,50.2490249],[36.9211453,50.2623051],[36.9443196,50.2564886],[36.9472379,50.2651034],[36.9546193,50.2743748],[36.9840592,50.2794213],[36.9826001,50.2838091],[37.0081331,50.2856994],[37.0056886,50.3040424],[37.0211381,50.30629],[37.0127267,50.3485364],[37.01058,50.348704],[37.0154733,50.3163386],[36.9841846,50.3119127],[36.983452,50.315158],[36.9763993,50.316888],[36.9666932,50.3139161],[36.9608506,50.3097926],[36.9658214,50.2957517],[36.946379,50.292602],[36.940758,50.289702],[36.9414415,50.277604],[36.936823,50.271801],[36.9462175,50.2647753],[36.9435947,50.2573105],[36.9208421,50.2630113],[36.9026459,50.2500605],[36.8633013,50.2717745],[36.8305131,50.2546589],[36.8135413,50.2506353],[36.807395,50.2475315],[36.7908845,50.2477931],[36.7814126,50.2509625],[36.7575201,50.2511658],[36.7375371,50.2619972],[36.7051149,50.2671865],[36.6956892,50.2695942],[36.6954106,50.2668591]]],[[[35.4286099,50.7034488],[35.4370213,50.6989911],[35.4310131,50.6961641],[35.4423428,50.690727],[35.447836,50.6840928],[35.4629422,50.6856155],[35.4595089,50.6888782],[35.4632855,50.6934456],[35.4603672,50.6971427],[35.4620839,50.7026878],[35.4601956,50.7050796],[35.4663754,50.7082322],[35.467577,50.7168194],[35.4737568,50.7254049],[35.4641438,50.7352927],[35.4322,50.718074],[35.4286099,50.7034488]]]]},"bbox":[31.502479,44.3761053,40.22144,51.2350891]}]}